O3B MPOWER F1           
1 54755U 22174A   23206.47450362 -.00000012  00000+0  00000+0 0  9998
2 54755   0.0393  10.2974 0003215 190.5607  73.1155  5.00112037 12447
